NORAD_CAT_ID,OBJECT_NAME,OBJECT_TYPE,EPOCH,MEAN_MOTION,ECCENTRICITY,INCLINATION,RA_OF_ASC_NODE,ARG_OF_PERICENTER,MEAN_ANOMALY,BSTAR,MEAN_MOTION_DOT,MEAN_MOTION_DDOT,TLE_LINE0,TLE_LINE1,TLE_LINE2,SEMIMAJOR_AXIS,PERIOD,APOGEE,PERIGEE,DECAYED
55282.0,STARLINK-5330,PAYLOAD,2024-04-23 19:50:33,14.98328498,0.0002995,69.9991,331.092,267.9568,92.1248,0.00010252,1.13e-05,0.0,0 STARLINK-5330,1 55282U 23010P   24114.82678051  .00001130  00000-0  10252-3 0  9995,2 55282  69.9991 331.0920 0002995 267.9568  92.1248 14.98328498 69897,6950.198,96.107,574.144,569.981,0.0
55282.0,STARLINK-5330,PAYLOAD,2024-04-23 21:26:41,14.9832995,0.0002698,69.9996,330.923,265.0865,94.9986,0.00013091,1.469e-05,0.0,0 STARLINK-5330,1 55282U 23010P   24114.89353892  .00001469  00000-0  13091-3 0  9994,2 55282  69.9996 330.9230 0002698 265.0865  94.9986 14.98329950 70203,6950.193,96.107,573.933,570.183,0.0
55282.0,STARLINK-5330,PAYLOAD,2024-04-23 23:02:49,14.98331896,0.0002702,69.9997,330.755,266.9497,93.1353,0.00015148,1.715e-05,0.0,0 STARLINK-5330,1 55282U 23010P   24114.96029730  .00001715  00000-0  15148-3 0  9992,2 55282  69.9997 330.7550 0002702 266.9497  93.1353 14.98331896 70216,6950.187,96.107,573.93,570.174,0.0
55282.0,STARLINK-5330,PAYLOAD,2024-04-24 19:52:34,14.98328706,0.0003045,69.9991,328.5662,271.5098,88.5712,0.00014806,1.674e-05,0.0,0 STARLINK-5330,1 55282U 23010P   24115.82817928  .00001674  00000-0  14806-3 0  9996,2 55282  69.9991 328.5662 0003045 271.5098  88.5712 14.98328706 70043,6950.197,96.107,574.178,569.946,0.0
55282.0,STARLINK-5330,PAYLOAD,2024-04-24 21:28:42,14.98329076,0.0002759,69.9996,328.3985,265.0928,94.9916,0.00014226,1.605e-05,0.0,0 STARLINK-5330,1 55282U 23010P   24115.89493914  .00001605  00000-0  14226-3 0  9998,2 55282  69.9996 328.3985 0002759 265.0928  94.9916 14.98329076 70357,6950.196,96.107,573.978,570.143,0.0
55282.0,STARLINK-5330,PAYLOAD,2024-04-25 15:06:11,14.98329565,0.0002741,70.0005,326.5459,272.4612,87.6233,0.00012888,1.445e-05,0.0,0 STARLINK-5330,1 55282U 23010P   24116.62929873  .00001445  00000-0  12888-3 0  9992,2 55282  70.0005 326.5459 0002741 272.4612  87.6233 14.98329565 70466,6950.194,96.107,573.964,570.154,0.0
55282.0,STARLINK-5330,PAYLOAD,2024-04-25 19:54:35,14.98328752,0.0003517,69.9989,326.0405,278.2776,81.7984,0.00010744,1.189e-05,0.0,0 STARLINK-5330,1 55282U 23010P   24116.82958042  .00001189  00000-0  10744-3 0  9998,2 55282  69.9989 326.0405 0003517 278.2776  81.7984 14.98328752 70192,6950.197,96.107,574.506,569.617,0.0
55282.0,STARLINK-5330,PAYLOAD,2024-04-25 21:30:43,14.98321805,0.0003073,70.0001,325.8731,269.8189,90.2618,0.00024665,2.851e-05,0.0,0 STARLINK-5330,1 55282U 23010P   24116.89634206  .00002851  00000-0  24665-3 0  9992,2 55282  70.0001 325.8731 0003073 269.8189  90.2618 14.98321805 70506,6950.218,96.108,574.219,569.947,0.0
55282.0,STARLINK-5330,PAYLOAD,2024-04-26 07:07:31,14.98336092,0.0002528,70.0004,324.861,275.4065,84.6806,9.0236e-06,1.5e-07,0.0,0 STARLINK-5330,1 55282U 23010P   24117.29689576  .00000015  00000-0  90236-5 0  9996,2 55282  70.0004 324.8610 0002528 275.4065  84.6806 14.98336092 70267,6950.174,96.107,573.796,570.282,0.0
55282.0,STARLINK-5330,PAYLOAD,2024-04-26 21:32:44,14.98334663,0.000281,69.9993,323.348,264.971,95.1128,0.00011651,1.298e-05,0.0,0 STARLINK-5330,1 55282U 23010P   24117.89773234  .00001298  00000-0  11651-3 0  9993,2 55282  69.9993 323.3480 0002810 264.9710  95.1128 14.98334663 70653,6950.178,96.107,573.996,570.09,0.0
55282.0,STARLINK-5330,PAYLOAD,2024-04-27 13:34:05,14.98328649,0.0002414,69.9999,321.6641,273.9462,86.1421,4.8665e-05,4.88e-06,0.0,0 STARLINK-5330,1 55282U 23010P   24118.56533796  .00000488  00000-0  48665-4 0  9991,2 55282  69.9999 321.6641 0002414 273.9462  86.1421 14.98328649 70454,6950.197,96.107,573.74,570.384,0.0
55282.0,STARLINK-5330,PAYLOAD,2024-04-27 21:34:46,14.9832306,0.0002967,69.9986,320.8214,273.0909,86.9911,-6.3403e-05,-8.49e-06,0.0,0 STARLINK-5330,1 55282U 23010P   24118.89914393 -.00000849  00000-0 -63403-4 0  9993,2 55282  69.9986 320.8214 0002967 273.0909  86.9911 14.98323060 70800,6950.214,96.107,574.141,570.017,0.0
55282.0,STARLINK-5330,PAYLOAD,2024-04-27 23:10:54,14.9832243,0.0002903,69.9988,320.6531,272.0612,88.0215,-4.5618e-05,-6.37e-06,0.0,0 STARLINK-5330,1 55282U 23010P   24118.96590408 -.00000637  00000-0 -45618-4 0  9991,2 55282  69.9988 320.6531 0002903 272.0612  88.0215 14.98322430 70510,6950.216,96.107,574.099,570.064,0.0
55282.0,STARLINK-5330,PAYLOAD,2024-04-28 13:36:06,14.98328694,0.0003104,69.9979,319.1397,271.518,88.5623,4.2478e-05,4.14e-06,0.0,0 STARLINK-5330,1 55282U 23010P   24119.56673783  .00000414  00000-0  42478-4 0  9998,2 55282  69.9979 319.1397 0003104 271.5180  88.5623 14.98328694 70607,6950.197,96.107,574.219,569.905,0.0
55282.0,STARLINK-5330,PAYLOAD,2024-04-28 21:36:46,14.98331274,0.0002957,69.9984,318.2977,269.7814,90.3006,0.00011764,1.311e-05,0.0,0 STARLINK-5330,1 55282U 23010P   24119.90053424  .00001311  00000-0  11764-3 0  9990,2 55282  69.9984 318.2977 0002957 269.7814  90.3006 14.98331274 70957,6950.189,96.107,574.109,569.999,0.0
55282.0,STARLINK-5330,PAYLOAD,2024-04-28 23:12:54,14.98337222,0.0003047,69.9982,318.1294,272.5522,87.5288,3.1424e-05,2.82e-06,0.0,0 STARLINK-5330,1 55282U 23010P   24119.96729215  .00000282  00000-0  31424-4 0  9996,2 55282  69.9982 318.1294 0003047 272.5522  87.5288 14.98337222 70662,6950.171,96.107,574.153,569.918,0.0
55282.0,STARLINK-5330,PAYLOAD,2024-04-29 13:38:07,14.98324765,0.0003026,69.9983,316.6141,273.1207,86.9606,0.00014301,1.614e-05,0.0,0 STARLINK-5330,1 55282U 23010P   24120.56813683  .00001614  00000-0  14301-3 0  9991,2 55282  69.9983 316.6141 0003026 273.1207  86.9606 14.98324765 70756,6950.209,96.107,574.177,569.971,0.0
55282.0,STARLINK-5330,PAYLOAD,2024-04-29 21:38:47,14.9832783,0.0003044,69.9984,315.7725,272.946,87.1351,0.00012686,1.421e-05,0.0,0 STARLINK-5330,1 55282U 23010P   24120.90193640  .00001421  00000-0  12686-3 0  9993,2 55282  69.9984 315.7725 0003044 272.9460  87.1351 14.98327830 71109,6950.2,96.107,574.18,569.949,0.0
55282.0,STARLINK-5330,PAYLOAD,2024-04-30 13:40:07,14.9833479,0.0002979,69.9987,314.0891,273.2606,86.8213,3.6592e-05,3.44e-06,0.0,0 STARLINK-5330,1 55282U 23010P   24121.56953433  .00000344  00000-0  36592-4 0  9996,2 55282  69.9987 314.0891 0002979 273.2606  86.8213 14.98334790 70903,6950.178,96.107,574.114,569.973,0.0
55282.0,STARLINK-5330,PAYLOAD,2024-04-30 15:16:15,14.98333931,0.0002994,69.9986,313.9208,273.1201,86.9615,2.7434e-05,2.34e-06,0.0,0 STARLINK-5330,1 55282U 23010P   24121.63629486  .00000234  00000-0  27434-4 0  9995,2 55282  69.9986 313.9208 0002994 273.1201  86.9615 14.98333931 71217,6950.181,96.107,574.127,569.965,0.0
55282.0,STARLINK-5330,PAYLOAD,2024-04-30 21:40:48,14.98334796,0.0003001,69.9986,313.2475,272.6789,87.4026,2.0337e-05,1.5e-06,0.0,0 STARLINK-5330,1 55282U 23010P   24121.90333370  .00000150  00000-0  20337-4 0  9991,2 55282  69.9986 313.2475 0003001 272.6789  87.4026 14.98334796 71257,6950.178,96.107,574.129,569.957,0.0
55282.0,STARLINK-5330,PAYLOAD,2024-05-01 05:41:28,14.98334102,0.0003004,69.9986,312.4056,273.2711,86.8105,3.0743e-05,2.74e-06,0.0,0 STARLINK-5330,1 55282U 23010P   24122.23713304  .00000274  00000-0  30743-4 0  9996,2 55282  69.9986 312.4056 0003004 273.2711  86.8105 14.98334102 71306,6950.18,96.107,574.133,569.957,0.0
55282.0,STARLINK-5330,PAYLOAD,2024-05-02 13:44:09,14.98327292,0.0003038,69.9984,309.0384,272.5641,87.517,-2.1585e-05,-3.51e-06,0.0,0 STARLINK-5330,1 55282U 23010P   24123.57233594 -.00000351  00000-0 -21585-4 0  9994,2 55282  69.9984 309.0384 0003038 272.5641  87.5170 14.98327292 71202,6950.201,96.107,574.178,569.955,0.0
55282.0,STARLINK-5330,PAYLOAD,2024-05-03 13:46:10,14.98333694,0.0003056,69.9979,306.5137,272.1856,87.8953,2.2697e-05,1.78e-06,0.0,0 STARLINK-5330,1 55282U 23010P   24124.57373015  .00000178  00000-0  22697-4 0  9998,2 55282  69.9979 306.5137 0003056 272.1856  87.8953 14.98333694 71359,6950.181,96.107,574.17,569.922,0.0
55282.0,STARLINK-5330,PAYLOAD,2024-05-03 20:10:42,14.98329235,0.0003081,69.998,305.8402,271.9948,88.0858,9.8741e-05,1.085e-05,0.0,0 STARLINK-5330,1 55282U 23010P   24124.84076941  .00001085  00000-0  98741-4 0  9997,2 55282  69.9980 305.8402 0003081 271.9948  88.0858 14.98329235 71695,6950.195,96.107,574.202,569.919,0.0
55282.0,STARLINK-5330,PAYLOAD,2024-05-04 12:12:03,14.98322962,0.0003047,69.998,304.1569,271.8049,88.276,1.3395e-05,6.7e-07,0.0,0 STARLINK-5330,1 55282U 23010P   24125.50837754  .00000067  00000-0  13395-4 0  9999,2 55282  69.9980 304.1569 0003047 271.8049  88.2760 14.98322962 71496,6950.215,96.107,574.197,569.962,0.0
55282.0,STARLINK-5330,PAYLOAD,2024-05-05 12:14:04,14.98332225,0.0003055,69.9982,301.6313,270.6615,89.4194,3.9004e-05,3.72e-06,0.0,0 STARLINK-5330,1 55282U 23010P   24126.50977297  .00000372  00000-0  39004-4 0  9991,2 55282  69.9982 301.6313 0003055 270.6615  89.4194 14.98332225 71646,6950.186,96.107,574.174,569.928,0.0
55282.0,STARLINK-5330,PAYLOAD,2024-05-05 13:50:12,14.9833269,0.0003057,69.9982,301.463,270.6408,89.4401,4.357e-05,4.27e-06,0.0,0 STARLINK-5330,1 55282U 23010P   24126.57653249  .00000427  00000-0  43570-4 0  9990,2 55282  69.9982 301.4630 0003057 270.6408  89.4401 14.98332690 71959,6950.185,96.107,574.174,569.925,0.0
55282.0,STARLINK-5330,PAYLOAD,2024-05-05 21:50:52,14.98335771,0.0003062,69.9984,300.6215,270.3172,89.7636,6.3496e-05,6.65e-06,0.0,0 STARLINK-5330,1 55282U 23010P   24126.91032921  .00000665  00000-0  63496-4 0  9999,2 55282  69.9984 300.6215 0003062 270.3172  89.7636 14.98335771 72005,6950.175,96.107,574.168,569.912,0.0
55282.0,STARLINK-5330,PAYLOAD,2024-05-06 12:16:05,14.98331663,0.000308,69.9985,299.1064,270.3835,89.6972,0.00012324,1.378e-05,0.0,0 STARLINK-5330,1 55282U 23010P   24127.51116979  .00001378  00000-0  12324-3 0  9997,2 55282  69.9985 299.1064 0003080 270.3835  89.6972 14.98331663 71799,6950.188,96.107,574.193,569.912,0.0
